OBJECT_NAME,OBJECT_ID,EPOCH,MEAN_MOTION,ECCENTRICITY,INCLINATION,RA_OF_ASC_NODE,ARG_OF_PERICENTER,MEAN_ANOMALY,EPHEMERIS_TYPE,CLASSIFICATION_TYPE,NORAD_CAT_ID,ELEMENT_SET_NO,REV_AT_EPOCH,BSTAR,MEAN_MOTION_DOT,MEAN_MOTION_DDOT
STARLINK-37893,2026-131J,2026-06-19T22:00:01.999584,15.92512574,.00010833,97.2834,191.3221,75.3578,247.8627,0,U,69486,999,253,-.32205993E-2,-.1084895E-1,.35194203E-3
STARLINK-37842,2026-131K,2026-06-19T22:00:01.999584,15.92613680,.00010434,97.2834,191.3234,72.9438,253.0028,0,U,69487,999,245,-.32007021E-2,-.1083847E-1,.35167269E-3
STARLINK-37449,2026-131L,2026-06-19T22:00:01.999584,15.92717320,.00010387,97.2835,191.3244,75.3179,253.4562,0,U,69488,999,254,-.31941679E-2,-.1087423E-1,.35420022E-3
STARLINK-37831,2026-131M,2026-06-19T22:00:01.999584,15.92822414,.00010421,97.2834,191.3254,72.0787,259.6864,0,U,69489,999,130,-.31969343E-2,-.1094254E-1,.35872143E-3
STARLINK-37879,2026-131N,2026-06-19T22:00:01.999584,15.92924425,.000109,97.2834,191.3267,71.6081,262.7024,0,U,69490,999,245,-.31793752E-2,-.1094026E-1,.35895559E-3
STARLINK-37856,2026-131P,2026-06-19T22:00:01.999584,15.93111173,.00010625,97.2834,191.3273,73.6895,263.4526,0,U,69491,999,251,-.38423293E-2,-.1332667E-1,.51825389E-3
STARLINK-37568,2026-131Q,2026-06-19T22:00:01.999584,15.93131465,.00010255,97.2833,191.3287,77.7405,261.9942,0,U,69492,999,254,-.3160597E-2,-.109928E-1,.36292295E-3
STARLINK-37855,2026-131R,2026-06-19T22:00:01.999584,15.93212259,.00010758,97.2832,191.3302,74.0835,268.8394,0,U,69493,999,251,-.2980086E-2,-.1041314E-1,.32849916E-3
STARLINK-37854,2026-131S,2026-06-19T22:00:01.999584,15.93422216,.00010369,97.2831,191.3310,75.9613,270.0666,0,U,69494,999,251,-.38093472E-2,-.1342704E-1,.52716196E-3
STARLINK-37789,2026-131T,2026-06-19T22:00:01.999584,15.93443534,.0000975,97.2830,191.3323,76.5724,272.2752,0,U,69495,999,253,-.31541093E-2,-.111488E-1,.37371924E-3
STARLINK-37839,2026-131U,2026-06-19T22:00:01.999584,15.93718664,.00011073,97.2828,191.3344,66.2985,287.6014,0,U,69496,999,251,-.37395171E-2,-.1338725E-1,.52586614E-3
STARLINK-37798,2026-131V,2026-06-19T22:00:01.999584,15.93444443,.00010143,97.2829,191.3329,59.9293,288.9162,0,U,69497,999,251,-.31558771E-2,-.1115558E-1,.37414706E-3
STARLINK-37853,2026-131W,2026-06-19T22:00:01.999584,15.94031312,.00010127,97.2827,191.3384,70.9754,291.9193,0,U,69498,999,251,-.30086383E-2,-.1096875E-1,.36481103E-3
STARLINK-37849,2026-131X,2026-06-19T22:00:01.999584,15.93936354,.00009233,97.2829,191.3374,80.7456,280.1313,0,U,69499,999,253,-.30452344E-2,-.1104617E-1,.36923377E-3
STARLINK-37835,2026-131Y,2026-06-19T22:00:01.999584,15.94296303,.00010756,97.2828,191.3371,89.6624,271.0451,0,U,69500,999,143,-.46351153E-2,-.1705841E-1,.82903925E-3
STARLINK-37843,2026-131Z,2026-06-19T22:00:01.999584,15.93842473,.000099,97.2829,191.3367,76.9539,281.6636,0,U,69501,999,251,-.30935866E-2,-.1116548E-1,.37629486E-3
2026-132A,2026-132A,2026-06-19T23:00:27.542304,14.99047580,.00127265,97.6901,234.5982,260.1805,99.7981,0,U,69502,999,119,.4748184E-4,.517E-5,0
2026-132B,2026-132B,2026-06-19T21:23:39.364512,14.99136573,.00126132,97.6932,234.5361,262.6954,97.2836,0,U,69503,999,118,.30865556E-4,.316E-5,0
BRO-22,2026-132C,2026-06-19T18:06:49.005504,14.99760681,.00141175,97.6870,234.4004,274.8177,85.1434,0,U,69504,999,116,.42254652E-4,.463E-5,0
2026-132D,2026-132D,2026-06-19T19:28:43.677696,15.02642594,.00145913,97.6854,234.4687,281.9794,77.9795,0,U,69505,999,117,.1159607E-3,.1487E-4,0
2026-132E,2026-132E,2026-06-19T17:58:35.088672,15.00886796,.00127256,97.6901,234.4139,297.4828,62.5102,0,U,69506,999,115,.13309043E-3,.1636E-4,0
2026-132F,2026-132F,2026-06-19T19:30:32.543424,15.01929219,.00132961,97.6860,234.4660,296.3475,63.6384,0,U,69507,999,116,.8776588E-5,.54E-6,0
STARLINK-37536,2026-133A,2026-06-19T22:00:01.999584,15.99830369,.0000848,53.1586,308.8096,41.0392,304.1933,0,U,69508,999,241,-.34249015E-2,-.1770959E-1,.9422198E-3
STARLINK-37341,2026-133B,2026-06-19T22:00:01.999584,16.00119709,.00007176,53.1586,308.8003,45.6776,304.0064,0,U,69509,999,241,-.33789853E-2,-.1776258E-1,.9505377E-3
STARLINK-36536,2026-133C,2026-06-19T22:00:01.999584,16.00454182,.0000633,53.1585,308.7903,49.3484,305.2069,0,U,69510,999,235,-.32883971E-2,-.1762315E-1,.94022249E-3
STARLINK-37420,2026-133D,2026-06-19T22:00:01.999584,16.01203081,.00006725,53.1581,308.7684,48.0922,316.8466,0,U,69511,999,230,-.30962933E-2,-.1733156E-1,.91924326E-3
STARLINK-37511,2026-133E,2026-06-19T22:00:01.999584,16.00840650,.00006918,53.1586,308.7794,47.0956,312.7531,0,U,69512,999,230,-.31829341E-2,-.1744479E-1,.92662907E-3
STARLINK-37552,2026-133F,2026-06-19T22:00:01.999584,16.01521397,.00007175,53.1582,308.7591,47.2195,322.4421,0,U,69513,999,230,-.30187774E-2,-.1721525E-1,.91110352E-3
STARLINK-37607,2026-133G,2026-06-19T22:00:01.999584,16.01743784,.00007922,53.1584,308.7501,44.5192,329.1103,0,U,69514,999,230,-.29642149E-2,-.1712641E-1,.9046794E-3
