STARLINK-37893          
1 69486U 26131J   26170.91668981 -.01084895  35194-3 -32206-2 0  9997
2 69486  97.2834 191.3221 0001083  75.3578 247.8627 15.92512574  2531
STARLINK-37842          
1 69487U 26131K   26170.91668981 -.01083847  35167-3 -32007-2 0  9993
2 69487  97.2834 191.3234 0001043  72.9438 253.0028 15.92613680  2455
STARLINK-37449          
1 69488U 26131L   26170.91668981 -.01087423  35420-3 -31942-2 0  9997
2 69488  97.2835 191.3244 0001038  75.3179 253.4562 15.92717320  2544
STARLINK-37831          
1 69489U 26131M   26170.91668981 -.01094254  35872-3 -31969-2 0  9998
2 69489  97.2834 191.3254 0001042  72.0787 259.6864 15.92822414  1306
STARLINK-37879          
1 69490U 26131N   26170.91668981 -.01094026  35896-3 -31794-2 0  9999
2 69490  97.2834 191.3267 0001090  71.6081 262.7024 15.92924425  2452
STARLINK-37856          
1 69491U 26131P   26170.91668981 -.01332667  51825-3 -38423-2 0  9992
2 69491  97.2834 191.3273 0001062  73.6895 263.4526 15.93111173  2515
STARLINK-37568          
1 69492U 26131Q   26170.91668981 -.01099280  36292-3 -31606-2 0  9991
2 69492  97.2833 191.3287 0001025  77.7405 261.9942 15.93131465  2545
STARLINK-37855          
1 69493U 26131R   26170.91668981 -.01041314  32850-3 -29801-2 0  9997
2 69493  97.2832 191.3302 0001075  74.0835 268.8394 15.93212259  2510
STARLINK-37854          
1 69494U 26131S   26170.91668981 -.01342704  52716-3 -38093-2 0  9991
2 69494  97.2831 191.3310 0001036  75.9613 270.0666 15.93422216  2513
STARLINK-37789          
1 69495U 26131T   26170.91668981 -.01114880  37372-3 -31541-2 0  9996
2 69495  97.2830 191.3323 0000975  76.5724 272.2752 15.93443534  2536
STARLINK-37839          
1 69496U 26131U   26170.91668981 -.01338725  52587-3 -37395-2 0  9991
2 69496  97.2828 191.3344 0001107  66.2985 287.6014 15.93718664  2518
STARLINK-37798          
1 69497U 26131V   26170.91668981 -.01115558  37415-3 -31559-2 0  9998
2 69497  97.2829 191.3329 0001014  59.9293 288.9162 15.93444443  2510
STARLINK-37853          
1 69498U 26131W   26170.91668981 -.01096875  36481-3 -30086-2 0  9995
2 69498  97.2827 191.3384 0001012  70.9754 291.9193 15.94031312  2519
STARLINK-37849          
1 69499U 26131X   26170.91668981 -.01104617  36923-3 -30452-2 0  9998
2 69499  97.2829 191.3374 0000923  80.7456 280.1313 15.93936354  2534
STARLINK-37835          
1 69500U 26131Y   26170.91668981 -.01705841  82904-3 -46351-2 0  9992
2 69500  97.2828 191.3371 0001075  89.6624 271.0451 15.94296303  1431
STARLINK-37843          
1 69501U 26131Z   26170.91668981 -.01116548  37629-3 -30936-2 0  9999
2 69501  97.2829 191.3367 0000990  76.9539 281.6636 15.93842473  2513
2026-132A               
1 69502U 26132A   26170.95865211  .00000517  00000+0  47482-4 0  9990
2 69502  97.6901 234.5982 0012726 260.1805  99.7981 14.99047580  1190
2026-132B               
1 69503U 26132B   26170.89142783  .00000316  00000+0  30866-4 0  9991
2 69503  97.6932 234.5361 0012613 262.6954  97.2836 14.99136573  1185
BRO-22                  
1 69504U 26132C   26170.75473386  .00000463  00000+0  42255-4 0  9991
2 69504  97.6870 234.4004 0014117 274.8177  85.1434 14.99760681  1164
2026-132D               
1 69505U 26132D   26170.81161664  .00001487  00000+0  11596-3 0  9992
2 69505  97.6854 234.4687 0014591 281.9794  77.9795 15.02642594  1171
2026-132E               
1 69506U 26132E   26170.74901723  .00001636  00000+0  13309-3 0  9993
2 69506  97.6901 234.4139 0012725 297.4828  62.5102 15.00886796  1156
2026-132F               
1 69507U 26132F   26170.81287666  .00000054  00000+0  87766-5 0  9998
2 69507  97.6860 234.4660 0013296 296.3475  63.6384 15.01929219  1164
STARLINK-37536          
1 69508U 26133A   26170.91668981 -.01770959  94222-3 -34249-2 0  9993
2 69508  53.1586 308.8096 0000848  41.0392 304.1933 15.99830369  2414
STARLINK-37341          
1 69509U 26133B   26170.91668981 -.01776258  95054-3 -33790-2 0  9996
2 69509  53.1586 308.8003 0000717  45.6776 304.0064 16.00119709  2419
STARLINK-36536          
1 69510U 26133C   26170.91668981 -.01762315  94022-3 -32884-2 0  9994
2 69510  53.1585 308.7903 0000633  49.3484 305.2069 16.00454182  2350
STARLINK-37420          
1 69511U 26133D   26170.91668981 -.01733156  91924-3 -30963-2 0  9990
2 69511  53.1581 308.7684 0000672  48.0922 316.8466 16.01203081  2304
STARLINK-37511          
1 69512U 26133E   26170.91668981 -.01744479  92663-3 -31829-2 0  9994
2 69512  53.1586 308.7794 0000691  47.0956 312.7531 16.00840650  2305
STARLINK-37552          
1 69513U 26133F   26170.91668981 -.01721525  91110-3 -30188-2 0  9995
2 69513  53.1582 308.7591 0000717  47.2195 322.4421 16.01521397  2304
STARLINK-37607          
1 69514U 26133G   26170.91668981 -.01712641  90468-3 -29642-2 0  9993
2 69514  53.1584 308.7501 0000792  44.5192 329.1103 16.01743784  2305
